NORAD_CAT_ID,OBJECT_NAME,OBJECT_TYPE,EPOCH,MEAN_MOTION,ECCENTRICITY,INCLINATION,RA_OF_ASC_NODE,ARG_OF_PERICENTER,MEAN_ANOMALY,BSTAR,MEAN_MOTION_DOT,MEAN_MOTION_DDOT,TLE_LINE0,TLE_LINE1,TLE_LINE2,SEMIMAJOR_AXIS,PERIOD,APOGEE,PERIGEE,DECAYED
53026.0,STARLINK-4119,PAYLOAD,2024-02-12 19:06:44,15.08848535,0.0001397,53.216,237.3548,79.5875,280.5274,0.00020152,2.921e-05,0.0,0 STARLINK-4119,1 53026U 22076AS  24043.79634970  .00002921  00000-0  20152-3 0  9998,2 53026  53.2160 237.3548 0001397  79.5875 280.5274 15.08848535 89347,6917.854,95.437,540.686,538.753,0.0
53026.0,STARLINK-4119,PAYLOAD,2024-02-13 18:57:30,15.08869261,0.0001233,53.2161,232.8942,88.6672,271.4461,0.00023398,3.441e-05,0.0,0 STARLINK-4119,1 53026U 22076AS  24044.78993315  .00003441  00000-0  23398-3 0  9992,2 53026  53.2161 232.8942 0001233  88.6672 271.4461 15.08869261 89493,6917.791,95.436,540.509,538.803,0.0
53026.0,STARLINK-4119,PAYLOAD,2024-02-13 22:08:16,15.08869876,0.0001324,53.216,232.2975,99.0469,261.0673,0.00023067,3.388e-05,0.0,0 STARLINK-4119,1 53026U 22076AS  24044.92241037  .00003388  00000-0  23067-3 0  9998,2 53026  53.2160 232.2975 0001324  99.0469 261.0673 15.08869876 89046,6917.789,95.436,540.57,538.738,0.0
53026.0,STARLINK-4119,PAYLOAD,2024-02-14 12:26:46,15.08842997,0.0001344,53.2162,229.6225,91.52,268.5946,-4.6304e-05,-1.025e-05,0.0,0 STARLINK-4119,1 53026U 22076AS  24045.51859031 -.00001025  00000-0 -46304-4 0  9991,2 53026  53.2162 229.6225 0001344  91.5200 268.5946 15.08842997 89600,6917.871,95.437,540.666,538.806,0.0
53026.0,STARLINK-4119,PAYLOAD,2024-02-14 18:48:18,15.08839785,0.0001245,53.2162,228.4327,89.3167,270.7968,-7.1945e-05,-1.433e-05,0.0,0 STARLINK-4119,1 53026U 22076AS  24045.78355250 -.00001433  00000-0 -71945-4 0  9996,2 53026  53.2162 228.4327 0001245  89.3167 270.7968 15.08839785 89179,6917.881,95.438,540.607,538.885,0.0
53026.0,STARLINK-4119,PAYLOAD,2024-02-15 18:39:05,15.08846506,0.0001173,53.2164,223.9716,88.8585,271.2542,-0.00013441,-2.427e-05,0.0,0 STARLINK-4119,1 53026U 22076AS  24046.77715075 -.00002427  00000-0 -13441-3 0  9991,2 53026  53.2164 223.9716 0001173  88.8585 271.2542 15.08846506 89792,6917.861,95.437,540.537,538.914,0.0
53026.0,STARLINK-4119,PAYLOAD,2024-02-16 04:11:24,15.08845116,0.0001121,53.2165,222.1874,87.2992,272.8129,-9.2954e-05,-1.767e-05,0.0,0 STARLINK-4119,1 53026U 22076AS  24047.17458944 -.00001767  00000-0 -92954-4 0  9998,2 53026  53.2165 222.1874 0001121  87.2992 272.8129 15.08845116 89386,6917.865,95.437,540.505,538.954,0.0
53026.0,STARLINK-4119,PAYLOAD,2024-02-16 16:54:29,15.08835821,0.0001238,53.2164,219.8085,81.8077,278.3056,0.00015045,2.107e-05,0.0,0 STARLINK-4119,1 53026U 22076AS  24047.70451180  .00002107  00000-0  15045-3 0  9994,2 53026  53.2164 219.8085 0001238  81.8077 278.3056 15.08835821 89466,6917.893,95.438,540.615,538.902,0.0
53026.0,STARLINK-4119,PAYLOAD,2024-02-17 04:02:12,15.08832651,0.0001236,53.2163,217.7264,79.8172,280.2959,0.00011215,1.497e-05,0.0,0 STARLINK-4119,1 53026U 22076AS  24048.16819724  .00001497  00000-0  11215-3 0  9993,2 53026  53.2163 217.7264 0001236  79.8172 280.2959 15.08832651 90006,6917.903,95.438,540.623,538.913,0.0
53026.0,STARLINK-4119,PAYLOAD,2024-02-17 19:56:04,15.0883107,0.0001294,53.2165,214.7546,91.9686,268.1454,4.2278e-05,3.85e-06,0.0,0 STARLINK-4119,1 53026U 22076AS  24048.83060494  .00000385  00000-0  42278-4 0  9998,2 53026  53.2165 214.7546 0001294  91.9686 268.1454 15.08831070 89633,6917.908,95.438,540.668,538.878,0.0
53026.0,STARLINK-4119,PAYLOAD,2024-02-18 15:00:40,15.08849518,0.0001367,53.2168,211.1865,94.9245,265.1903,0.00012994,1.781e-05,0.0,0 STARLINK-4119,1 53026U 22076AS  24049.62547279  .00001781  00000-0  12994-3 0  9999,2 53026  53.2168 211.1865 0001367  94.9245 265.1903 15.08849518 89751,6917.851,95.437,540.662,538.771,0.0
53026.0,STARLINK-4119,PAYLOAD,2024-02-18 19:46:49,15.08859704,0.0001613,53.2162,210.2933,126.2542,233.8599,0.00010932,1.453e-05,0.0,0 STARLINK-4119,1 53026U 22076AS  24049.82418538  .00001453  00000-0  10932-3 0  9992,2 53026  53.2162 210.2933 0001613 126.2542 233.8599 15.08859704 90252,6917.82,95.436,540.801,538.569,0.0
53026.0,STARLINK-4119,PAYLOAD,2024-02-19 03:43:46,15.08838713,0.0001082,53.2164,208.809,103.3438,256.7674,8.8516e-05,1.121e-05,0.0,0 STARLINK-4119,1 53026U 22076AS  24050.15539816  .00001121  00000-0  88516-4 0  9999,2 53026  53.2164 208.8090 0001082 103.3438 256.7674 15.08838713 90302,6917.884,95.438,540.498,539.001,0.0
53026.0,STARLINK-4119,PAYLOAD,2024-02-19 14:51:28,15.08833673,0.000146,53.2148,206.7244,93.5254,266.5906,0.00011683,1.572e-05,0.0,0 STARLINK-4119,1 53026U 22076AS  24050.61908492  .00001572  00000-0  11683-3 0  9990,2 53026  53.2148 206.7244 0001460  93.5254 266.5906 15.08833673 89909,6917.9,95.438,540.775,538.755,0.0
53026.0,STARLINK-4119,PAYLOAD,2024-02-19 19:37:38,15.08838426,0.0001258,53.2146,205.8325,97.0184,263.0952,8.007e-05,9.87e-06,0.0,0 STARLINK-4119,1 53026U 22076AS  24050.81780173  .00000987  00000-0  80070-4 0  9992,2 53026  53.2146 205.8325 0001258  97.0184 263.0952 15.08838426 89930,6917.885,95.438,540.62,538.88,0.0
53026.0,STARLINK-4119,PAYLOAD,2024-02-20 03:34:33,15.08836812,0.0001159,53.2143,204.3441,98.4026,261.7097,3.3151e-05,2.4e-06,0.0,0 STARLINK-4119,1 53026U 22076AS  24051.14900249  .00000240  00000-0  33151-4 0  9997,2 53026  53.2143 204.3441 0001159  98.4026 261.7097 15.08836812 90451,6917.89,95.438,540.557,538.953,0.0
53026.0,STARLINK-4119,PAYLOAD,2024-02-20 14:42:15,15.08843987,0.0001186,53.2147,202.2625,94.6855,265.4273,0.0001777,2.542e-05,0.0,0 STARLINK-4119,1 53026U 22076AS  24051.61268125  .00002542  00000-0  17770-3 0  9994,2 53026  53.2147 202.2625 0001186  94.6855 265.4273 15.08843987 90058,6917.868,95.437,540.554,538.913,0.0
53026.0,STARLINK-4119,PAYLOAD,2024-02-20 19:28:24,15.08850759,0.0001183,53.2144,201.37,98.6375,261.4751,0.00045153,6.908e-05,0.0,0 STARLINK-4119,1 53026U 22076AS  24051.81139937  .00006908  00000-0  45153-3 0  9990,2 53026  53.2144 201.3700 0001183  98.6375 261.4751 15.08850759 90554,6917.848,95.437,540.531,538.894,0.0
53026.0,STARLINK-4119,PAYLOAD,2024-02-21 14:33:03,15.0883759,0.000127,53.217,197.7991,96.3734,263.7403,0.00020915,3.042e-05,0.0,0 STARLINK-4119,1 53026U 22076AS  24052.60628516  .00003042  00000-0  20915-3 0  9999,2 53026  53.2170 197.7991 0001270  96.3734 263.7403 15.08837590 90203,6917.888,95.438,540.631,538.874,0.0
53026.0,STARLINK-4119,PAYLOAD,2024-02-21 16:08:26,15.0884238,0.0001387,53.2151,197.5057,94.9546,265.1605,0.00022701,3.327e-05,0.0,0 STARLINK-4119,1 53026U 22076AS  24052.67252438  .00003327  00000-0  22701-3 0  9993,2 53026  53.2151 197.5057 0001387  94.9546 265.1605 15.08842380 90682,6917.873,95.437,540.698,538.779,0.0
53026.0,STARLINK-4119,PAYLOAD,2024-02-22 14:23:49,15.08844342,0.0001393,53.2156,193.3411,95.1056,265.0095,0.0001639,2.322e-05,0.0,0 STARLINK-4119,1 53026U 22076AS  24053.59988306  .00002322  00000-0  16390-3 0  9996,2 53026  53.2156 193.3411 0001393  95.1056 265.0095 15.08844342 90357,6917.867,95.437,540.696,538.768,0.0
53026.0,STARLINK-4119,PAYLOAD,2024-02-22 15:59:12,15.08846047,0.0001327,53.2161,193.045,92.9469,267.1675,0.00020819,3.028e-05,0.0,0 STARLINK-4119,1 53026U 22076AS  24053.66612236  .00003028  00000-0  20819-3 0  9995,2 53026  53.2161 193.0450 0001327  92.9469 267.1675 15.08846047 90365,6917.862,95.437,540.645,538.809,0.0
53026.0,STARLINK-4119,PAYLOAD,2024-02-23 14:14:36,15.08843093,0.000145,53.2164,188.8825,93.8036,266.3122,0.0001205,1.63e-05,0.0,0 STARLINK-4119,1 53026U 22076AS  24054.59348311  .00001630  00000-0  12050-3 0  9993,2 53026  53.2164 188.8825 0001450  93.8036 266.3122 15.08843093 90505,6917.871,95.437,540.739,538.733,0.0
53026.0,STARLINK-4119,PAYLOAD,2024-02-23 19:00:45,15.08851577,0.0001331,53.216,187.9896,89.7112,270.4033,0.00020308,2.947e-05,0.0,0 STARLINK-4119,1 53026U 22076AS  24054.79219781  .00002947  00000-0  20308-3 0  9990,2 53026  53.2160 187.9896 0001331  89.7112 270.4033 15.08851577 91005,6917.845,95.437,540.631,538.789,0.0
53026.0,STARLINK-4119,PAYLOAD,2024-02-24 12:30:01,15.08836049,0.0001452,53.2165,184.7198,87.6176,272.4983,-1.9553e-05,-5.99e-06,0.0,0 STARLINK-4119,1 53026U 22076AS  24055.52084724 -.00000599  00000-0 -19553-4 0  9993,2 53026  53.2165 184.7198 0001452  87.6176 272.4983 15.08836049 91116,6917.892,95.438,540.762,538.753,0.0
53026.0,STARLINK-4119,PAYLOAD,2024-02-24 14:05:24,15.08836045,0.000145,53.2166,184.4226,86.2442,273.8716,-1.7864e-05,-5.72e-06,0.0,0 STARLINK-4119,1 53026U 22076AS  24055.58708748 -.00000572  00000-0 -17864-4 0  9992,2 53026  53.2166 184.4226 0001450  86.2442 273.8716 15.08836045 90658,6917.892,95.438,540.761,538.754,0.0
53026.0,STARLINK-4119,PAYLOAD,2024-02-24 15:40:47,15.08837959,0.0001383,53.2161,184.1254,86.1743,273.9407,1.0741e-05,-1.17e-06,0.0,0 STARLINK-4119,1 53026U 22076AS  24055.65332641 -.00000117  00000-0  10741-4 0  9996,2 53026  53.2161 184.1254 0001383  86.1743 273.9407 15.08837959 90663,6917.887,95.438,540.708,538.795,0.0
53026.0,STARLINK-4119,PAYLOAD,2024-02-25 12:20:47,15.08845233,0.0001377,53.2161,180.2593,85.9413,274.1737,5.269e-05,5.51e-06,0.0,0 STARLINK-4119,1 53026U 22076AS  24056.51444357  .00000551  00000-0  52690-4 0  9990,2 53026  53.2161 180.2593 0001377  85.9413 274.1737 15.08845233 91260,6917.864,95.437,540.682,538.777,0.0
53026.0,STARLINK-4119,PAYLOAD,2024-02-25 13:56:10,15.08848126,0.0001442,53.2158,179.962,87.5053,272.6104,0.00010402,1.368e-05,0.0,0 STARLINK-4119,1 53026U 22076AS  24056.58068223  .00001368  00000-0  10402-3 0  9992,2 53026  53.2158 179.9620 0001442  87.5053 272.6104 15.08848126 90807,6917.856,95.437,540.718,538.723,0.0
53026.0,STARLINK-4119,PAYLOAD,2024-02-25 17:06:56,15.08854868,0.000142,53.2163,179.3679,85.6957,274.4198,0.00022674,3.324e-05,0.0,0 STARLINK-4119,1 53026U 22076AS  24056.71315927  .00003324  00000-0  22674-3 0  9991,2 53026  53.2163 179.3679 0001420  85.6957 274.4198 15.08854868 90824,6917.835,95.437,540.682,538.718,0.0
